NORAD_CAT_ID,OBJECT_NAME,OBJECT_TYPE,EPOCH,MEAN_MOTION,ECCENTRICITY,INCLINATION,RA_OF_ASC_NODE,ARG_OF_PERICENTER,MEAN_ANOMALY,BSTAR,MEAN_MOTION_DOT,MEAN_MOTION_DDOT,TLE_LINE0,TLE_LINE1,TLE_LINE2,SEMIMAJOR_AXIS,PERIOD,APOGEE,PERIGEE,DECAYED
51750.0,STARLINK-3505,PAYLOAD,2022-06-04 11:58:27,15.18368944,0.0001867,53.2175,358.2804,38.288,321.8249,-0.010637,-0.00215159,0.0,0 STARLINK-3505,1 51750U 22016AN  22155.49892975 -.00215159  00000-0 -10637-1 0  9990,2 51750  53.2175 358.2804 0001867  38.2880 321.8249 15.18368944 17358,6888.906999999997,94.839,512.058,509.485,0.0
51750.0,STARLINK-3505,PAYLOAD,2022-06-04 13:33:27,15.18136292,0.0001883,53.2193,357.9797,40.6628,319.4509,-0.010806,-0.00217054,0.0,0 STARLINK-3505,1 51750U 22016AN  22155.56490341 -.00217054  00000-0 -10806-1 0  9993,2 51750  53.2193 357.9797 0001883  40.6628 319.4509 15.18136292 16259,6889.61,94.853,512.773,510.17800000000005,0.0
51750.0,STARLINK-3505,PAYLOAD,2022-06-05 22:00:00,15.14750522,0.0001906,53.2174,351.8238,42.6289,140.5701,-0.041299,-0.00721612,0.0,0 STARLINK-3505,1 51750U 22016AN  22156.91667824 -.00721612  00000-0 -41299-1 0  9995,2 51750  53.2174 351.8238 0001906  42.6289 140.5701 15.14750522 17579,6899.873000000001,95.065,523.053,520.423,0.0
51750.0,STARLINK-3505,PAYLOAD,2022-06-06 14:00:01,15.13731235,0.0001706999999999,53.2175,348.8021,51.3354,168.0284,-0.042536,-0.0072201,0.0,0 STARLINK-3505,1 51750U 22016AN  22157.58334491 -.00722010  00000-0 -42536-1 0  9998,2 51750  53.2175 348.8021 0001707  51.3354 168.0284 15.13731235  1309,6902.97,95.129,526.013,523.6569999999998,0.0
51750.0,STARLINK-3505,PAYLOAD,2022-06-06 22:00:00,15.13219811,0.000165,53.2174,347.2954,55.2568,181.2696,-0.043023,-0.00719954,0.0,0 STARLINK-3505,1 51750U 22016AN  22157.91667824 -.00719954  00000-0 -43023-1 0  9999,2 51750  53.2174 347.2954 0001650  55.2568 181.2696 15.13219811  1308,6904.525,95.161,527.53,525.251,0.0
51750.0,STARLINK-3505,PAYLOAD,2022-06-07 06:00:00,15.12712489,0.0001623,53.2175,345.7868,52.1311,200.9453,-0.043929,-0.00724369,0.0,0 STARLINK-3505,1 51750U 22016AN  22158.25001157 -.00724369  00000-0 -43929-1 0  9999,2 51750  53.2175 345.7868 0001623  52.1311 200.9453 15.12712489 17774,6906.069,95.193,529.055,526.813,0.0
51750.0,STARLINK-3505,PAYLOAD,2022-06-07 14:00:01,15.1220128,0.0001718,53.2175,344.2809,47.5675,221.4466,-0.044395,-0.00721821,0.0,0 STARLINK-3505,1 51750U 22016AN  22158.58334491 -.00721821  00000-0 -44395-1 0  9993,2 51750  53.2175 344.2809 0001718  47.5675 221.4466 15.12201280  1305,6907.625,95.225,530.677,528.304,0.0
51750.0,STARLINK-3505,PAYLOAD,2022-06-07 22:00:00,15.11689676,0.0001667,53.2175,342.7777,49.1749,235.1634,-0.044873,-0.00719391,0.0,0 STARLINK-3505,1 51750U 22016AN  22158.91667824 -.00719391  00000-0 -44873-1 0  9999,2 51750  53.2175 342.7777 0001667  49.1749 235.1634 15.11689676  1302,6909.184,95.258,532.201,529.8969999999998,0.0
51750.0,STARLINK-3505,PAYLOAD,2022-06-08 06:00:02,15.11182099,0.0001529,53.2175,341.2726,53.6667,245.4465,-0.045808,-0.00723719,0.0,0 STARLINK-3505,1 51750U 22016AN  22159.25002315 -.00723719  00000-0 -45808-1 0  9993,2 51750  53.2175 341.2726 0001529  53.6667 245.4465 15.11182099 17924,6910.731,95.29,533.6519999999998,531.539,0.0
51750.0,STARLINK-3505,PAYLOAD,2022-06-08 14:00:01,15.10671571,0.0001564,53.2177,339.7703,52.2216,260.9277,-0.046359,-0.00722204,0.0,0 STARLINK-3505,1 51750U 22016AN  22159.58334491 -.00722204  00000-0 -46359-1 0  9992,2 51750  53.2177 339.7703 0001564  52.2216 260.9277 15.10671571  1302,6912.288000000001,95.322,535.234,533.072,0.0
51750.0,STARLINK-3505,PAYLOAD,2022-06-08 22:00:01,15.10159619,0.0001601,53.2175,338.2706,49.24800000000001,277.4502,-0.046811,-0.0071918,0.0,0 STARLINK-3505,1 51750U 22016AN  22159.91668981 -.00719180  00000-0 -46811-1 0  9995,2 51750  53.2175 338.2706 0001601  49.2480 277.4502 15.10159619  1306,6913.85,95.354,536.822,534.6080000000002,0.0
51750.0,STARLINK-3505,PAYLOAD,2022-06-09 14:00:01,15.08996878,0.0001654,53.2178,335.2712,50.1183,301.6738,-0.015205,-0.00235476,0.0,0 STARLINK-3505,1 51750U 22016AN  22160.58334491 -.00235476  00000-0 -15205-1 0  9990,2 51750  53.2178 335.2712 0001654  50.1183 301.6738 15.08996878  1306,6917.401,95.428,540.41,538.122,0.0
51750.0,STARLINK-3505,PAYLOAD,2022-06-09 22:00:00,15.08836069,0.0001543,53.2176,333.7759,56.4381,307.0312,0.00013169,1.808e-05,0.0,0 STARLINK-3505,1 51750U 22016AN  22160.91667824  .00001808  00000-0  13169-3 0  9993,2 51750  53.2176 333.7759 0001543  56.4381 307.0312 15.08836069  1307,6917.892,95.438,540.825,538.69,0.0
51750.0,STARLINK-3505,PAYLOAD,2022-06-10 00:00:00,15.08836845,0.0001524,53.2173,333.4015,53.301,43.066,8.217100000000001e-05,1.02e-05,0.0,0 STARLINK-3505,1 51750U 22016AN  22161.00001157  .00001020  00000-0  82171-4 0  9991,2 51750  53.2173 333.4015 0001524  53.3010  43.0660 15.08836845 18190,6917.89,95.438,540.809,538.701,0.0
51750.0,STARLINK-3505,PAYLOAD,2022-06-10 08:00:01,15.08840631,0.0001479,53.2177,331.9115,53.7419,54.3366,0.0032266,0.00051439,0.0,0 STARLINK-3505,1 51750U 22016AN  22161.33334491  .00051439  00000-0  32266-2 0  9994,2 51750  53.2177 331.9115 0001479  53.7419  54.3366 15.08840631 18246,6917.878000000002,95.438,540.7669999999998,538.72,0.0
51750.0,STARLINK-3505,PAYLOAD,2022-06-10 14:00:01,15.0889321,0.0001503,53.2179,330.7899,53.5983,333.1699,-0.0042336,-0.00067135,0.0,0 STARLINK-3505,1 51750U 22016AN  22161.58334491 -.00067135  00000-0 -42336-2 0  9992,2 51750  53.2179 330.7899 0001503  53.5983 333.1699 15.08893210  1303,6917.718000000003,95.434,540.622,538.543,0.0
51750.0,STARLINK-3505,PAYLOAD,2022-06-10 22:00:00,15.08808682,0.0001579,53.2174,329.2948,45.7564,352.6561,0.0022876,0.00036276,0.0,0 STARLINK-3505,1 51750U 22016AN  22161.91667824  .00036276  00000-0  22876-2 0  9995,2 51750  53.2174 329.2948 0001579  45.7564 352.6561 15.08808682 18331,6917.976,95.44,540.933,538.749,0.0
51750.0,STARLINK-3505,PAYLOAD,2022-06-11 14:00:01,15.087972,0.0001544,53.2174,326.2934,46.9217,14.6395,0.0038652,0.00061693,0.0,0 STARLINK-3505,1 51750U 22016AN  22162.58334491  .00061693  00000-0  38652-2 0  9990,2 51750  53.2174 326.2934 0001544  46.9217  14.6395 15.08797200 18437,6918.011,95.44,540.944,538.808,0.0
51750.0,STARLINK-3505,PAYLOAD,2022-06-11 22:00:00,15.08823567,0.0001595,53.217,324.8055,43.9075,29.2636,0.0029741,0.00047342,0.0,0 STARLINK-3505,1 51750U 22016AN  22162.91667824  .00047342  00000-0  29741-2 0  9990,2 51750  53.2170 324.8055 0001595  43.9075  29.2636 15.08823567  1300,6917.931,95.439,540.899,538.692,0.0
51750.0,STARLINK-3505,PAYLOAD,2022-06-12 06:00:02,15.08838419,0.0001476,53.2171,323.307,50.9519,33.8849,-0.00074401,-0.00012109,0.0,0 STARLINK-3505,1 51750U 22016AN  22163.25002315 -.00012109  00000-0 -74401-3 0  9995,2 51750  53.2171 323.3070 0001476  50.9519  33.8849 15.08838419 18533,6917.885,95.438,540.771,538.729,0.0
51750.0,STARLINK-3505,PAYLOAD,2022-06-12 14:00:01,15.08845713,0.0001626,53.2172,321.8113,52.7878,43.5685,-0.0015304,-0.00024566,0.0,0 STARLINK-3505,1 51750U 22016AN  22163.58334491 -.00024566  00000-0 -15304-2 0  9990,2 51750  53.2172 321.8113 0001626  52.7878  43.5685 15.08845713  1308,6917.863,95.437,540.8530000000002,538.6030000000002,0.0
51750.0,STARLINK-3505,PAYLOAD,2022-06-12 22:00:00,15.08819256,0.0001740999999999,53.2171,320.3159,45.8139,62.1394,0.0029696,0.00047264,0.0,0 STARLINK-3505,1 51750U 22016AN  22163.91667824  .00047264  00000-0  29696-2 0  9993,2 51750  53.2171 320.3159 0001741  45.8139  62.1394 15.08819256  1309,6917.944,95.439,541.013,538.604,0.0
51750.0,STARLINK-3505,PAYLOAD,2022-06-13 06:00:02,15.08835677,0.0001602,53.2174,318.8175,51.5455,68.0743,0.0019863,0.00031462,0.0,0 STARLINK-3505,1 51750U 22016AN  22164.25002315  .00031462  00000-0  19863-2 0  9997,2 51750  53.2174 318.8175 0001602  51.5455  68.0743 15.08835677 18680,6917.894,95.438,540.867,538.65,0.0
51750.0,STARLINK-3505,PAYLOAD,2022-06-13 14:00:01,15.08869017,0.0001768,53.2176,317.3218,52.7157,78.4462,-0.0030178,-0.00048035,0.0,0 STARLINK-3505,1 51750U 22016AN  22164.58334491 -.00048035  00000-0 -30178-2 0  9994,2 51750  53.2176 317.3218 0001768  52.7157  78.4462 15.08869017  1308,6917.792,95.436,540.88,538.434,0.0
51750.0,STARLINK-3505,PAYLOAD,2022-06-13 22:00:00,15.08843514,0.0001876,53.2176,315.8263,46.858,95.9151,0.00068341,0.00010606,0.0,0 STARLINK-3505,1 51750U 22016AN  22164.91667824  .00010606  00000-0  68341-3 0  9995,2 51750  53.2176 315.8263 0001876  46.8580  95.9151 15.08843514 18788,6917.87,95.437,541.0319999999998,538.437,0.0
51750.0,STARLINK-3505,PAYLOAD,2022-06-14 14:00:01,15.08861025,0.0001706,53.2182,312.8327,48.8555,117.1083,-0.0039832,-0.00063162,0.0,0 STARLINK-3505,1 51750U 22016AN  22165.58334491 -.00063162  00000-0 -39832-2 0  9999,2 51750  53.2182 312.8327 0001706  48.8555 117.1083 15.08861025 18888,6917.816,95.436,540.861,538.501,0.0
51750.0,STARLINK-3505,PAYLOAD,2022-06-14 22:00:00,15.08822465,0.0001808,53.2181,311.3371,43.7019,133.8486,-0.00033693,-5.644e-05,0.0,0 STARLINK-3505,1 51750U 22016AN  22165.91667824 -.00005644  00000-0 -33693-3 0  9996,2 51750  53.2181 311.3371 0001808  43.7019 133.8486 15.08822465  1308,6917.934,95.439,541.05,538.548,0.0
51750.0,STARLINK-3505,PAYLOAD,2022-06-15 06:00:00,15.08786419,0.000166,53.2185,309.8391,50.8826,138.2497,0.002723,0.00043251,0.0,0 STARLINK-3505,1 51750U 22016AN  22166.25001157  .00043251  00000-0  27230-2 0  9998,2 51750  53.2185 309.8391 0001660  50.8826 138.2497 15.08786419 18988,6918.044,95.441,541.058,538.761,0.0
51750.0,STARLINK-3505,PAYLOAD,2022-06-15 14:00:01,15.08825862,0.000177,53.2188,308.344,49.9997,150.6808,-0.00093422,-0.0001512,0.0,0 STARLINK-3505,1 51750U 22016AN  22166.58334491 -.00015120  00000-0 -93422-3 0  9997,2 51750  53.2188 308.3440 0001770  49.9997 150.6808 15.08825862  1308,6917.924,95.438,541.013,538.564,0.0
